{"type": "FeatureCollection", "features": [ {"type": "Feature", "properties": {"norad_id": 34570, "name": "COSMOS 2251 DEB", "group": "cosmos-2251-debris", "lat": 28.511742621641424, "lon": 27.853924749718864, "alt_km": 803.9934915168087, "timestamp": "2025-12-13T13:34:35.435014+00:00", "meta": {"OBJECT_NAME": "COSMOS 2251 DEB", "OBJECT_ID": "1993-036VG", "EPOCH": "2025-12-12T21:31:23.950272", "MEAN_MOTION": 13.99819861, "ECCENTRICITY": 0.01902121, "INCLINATION": 73.9571, "RA_OF_ASC_NODE": 218.0093, "ARG_OF_PERICENTER": 100.472, "MEAN_ANOMALY": 278.5393, "EPHEMERIS_TYPE": 0, "CLASSIFICATION_TYPE": "U", "NORAD_CAT_ID": 34570, "ELEMENT_SET_NO": 999, "REV_AT_EPOCH": 85603, "BSTAR": 0.00067758269, "MEAN_MOTION_DOT": 1.139e-05, "MEAN_MOTION_DDOT": 0}, "tle": {"line1": "1 34570U 93036VG  25346.89680498  .00001139  00000+0  67758-3 0  9991", "line2": "2 34570  73.9571 218.0093 0190212 100.4720 278.5393 13.99819861856039"}}, "geometry": {"type": "Point", "coordinates": [27.853924749718864, 28.511742621641424]}}, {"type": "Feature", "properties": {"norad_id": 34571, "name": "COSMOS 2251 DEB", "group": "cosmos-2251-debris", "lat": 34.80022184755564, "lon": -10.586672147408288, "alt_km": 712.1002277330963, "timestamp": "2025-12-13T13:34:35.435023+00:00", "meta": {"OBJECT_NAME": "COSMOS 2251 DEB", "OBJECT_ID": "1993-036VH", "EPOCH": "2025-12-09T06:09:38.106720", "MEAN_MOTION": 14.48721172, "ECCENTRICITY": 0.0066557, "INCLINATION": 74.0386, "RA_OF_ASC_NODE": 188.9585, "ARG_OF_PERICENTER": 224.7562, "MEAN_ANOMALY": 134.8218, "EPHEMERIS_TYPE": 0, "CLASSIFICATION_TYPE": "U", "NORAD_CAT_ID": 34571, "ELEMENT_SET_NO": 999, "REV_AT_EPOCH": 87243, "BSTAR": 0.0025604, "MEAN_MOTION_DOT": 9.914e-05, "MEAN_MOTION_DDOT": 0}, "tle": {"line1": "1 34571U 93036VH  25343.25669105  .00009914  00000+0  25604-2 0  9993", "line2": "2 34571  74.0386 188.9585 0066557 224.7562 134.8218 14.48721172872439"}}, "geometry": {"type": "Point", "coordinates": [-10.586672147408288, 34.80022184755564]}}, {"type": "Feature", "properties": {"norad_id": 34572, "name": "COSMOS 2251 DEB", "group": "cosmos-2251-debris", "lat": 9.865548675459356, "lon": 116.81201098797992, "alt_km": 771.3911110047229, "timestamp": "2025-12-13T13:34:35.435032+00:00", "meta": {"OBJECT_NAME": "COSMOS 2251 DEB", "OBJECT_ID": "1993-036VJ", "EPOCH": "2025-12-12T01:39:23.053248", "MEAN_MOTION": 14.49993335, "ECCENTRICITY": 0.00629257, "INCLINATION": 74.0101, "RA_OF_ASC_NODE": 116.7677, "ARG_OF_PERICENTER": 190.7051, "MEAN_ANOMALY": 290.1646, "EPHEMERIS_TYPE": 0, "CLASSIFICATION_TYPE": "U", "NORAD_CAT_ID": 34572, "ELEMENT_SET_NO": 999, "REV_AT_EPOCH": 87368, "BSTAR": 0.0042166825, "MEAN_MOTION_DOT": 0.00016761, "MEAN_MOTION_DDOT": 0}, "tle": {"line1": "1 34572U 93036VJ  25346.06901682  .00016761  00000+0  42167-2 0  9996", "line2": "2 34572  74.0101 116.7677 0062925 190.7051 290.1646 14.49993335873688"}}, "geometry": {"type": "Point", "coordinates": [116.81201098797992, 9.865548675459356]}}, {"type": "Feature", "properties": {"norad_id": 34574, "name": "COSMOS 2251 DEB", "group": "cosmos-2251-debris", "lat": -39.98543777604965, "lon": 27.673592185992085, "alt_km": 676.504768214998, "timestamp": "2025-12-13T13:34:35.435041+00:00", "meta": {"OBJECT_NAME": "COSMOS 2251 DEB", "OBJECT_ID": "1993-036VL", "EPOCH": "2025-12-12T13:47:32.669088", "MEAN_MOTION": 14.70604656, "ECCENTRICITY": 0.00669021, "INCLINATION": 74.0691, "RA_OF_ASC_NODE": 43.4522, "ARG_OF_PERICENTER": 64.532, "MEAN_ANOMALY": 49.9718, "EPHEMERIS_TYPE": 0, "CLASSIFICATION_TYPE": "U", "NORAD_CAT_ID": 34574, "ELEMENT_SET_NO": 999, "REV_AT_EPOCH": 88776, "BSTAR": 0.0013376443, "MEAN_MOTION_DOT": 8.399e-05, "MEAN_MOTION_DDOT": 0}, "tle": {"line1": "1 34574U 93036VL  25346.57468367  .00008399  00000+0  13376-2 0  9990", "line2": "2 34574  74.0691  43.4522 0066902  64.5320  49.9718 14.70604656887768"}}, "geometry": {"type": "Point", "coordinates": [27.673592185992085, -39.98543777604965]}}, {"type": "Feature", "properties": {"norad_id": 34576, "name": "COSMOS 2251 DEB", "group": "cosmos-2251-debris", "lat": -59.29484808764675, "lon": -14.54571449545992, "alt_km": 709.7074255352609, "timestamp": "2025-12-13T13:34:35.435050+00:00", "meta": {"OBJECT_NAME": "COSMOS 2251 DEB", "OBJECT_ID": "1993-036VN", "EPOCH": "2025-12-12T20:39:03.808800", "MEAN_MOTION": 14.55426972, "ECCENTRICITY": 0.00080845, "INCLINATION": 74.0334, "RA_OF_ASC_NODE": 137.9678, "ARG_OF_PERICENTER": 273.718, "MEAN_ANOMALY": 236.1333, "EPHEMERIS_TYPE": 0, "CLASSIFICATION_TYPE": "U", "NORAD_CAT_ID": 34576, "ELEMENT_SET_NO": 999, "REV_AT_EPOCH": 88468, "BSTAR": 0.0013583152, "MEAN_MOTION_DOT": 5.883e-05, "MEAN_MOTION_DDOT": 0}, "tle": {"line1": "1 34576U 93036VN  25346.86046075  .00005883  00000+0  13583-2 0  9997", "line2": "2 34576  74.0334 137.9678 0008084 273.7180 236.1333 14.55426972884687"}}, "geometry": {"type": "Point", "coordinates": [-14.54571449545992, -59.29484808764675]}}, {"type": "Feature", "properties": {"norad_id": 34579, "name": "COSMOS 2251 DEB", "group": "cosmos-2251-debris", "lat": 65.8523214728706, "lon": -98.01730218886993, "alt_km": 749.4255733903765, "timestamp": "2025-12-13T13:34:35.435060+00:00", "meta": {"OBJECT_NAME": "COSMOS 2251 DEB", "OBJECT_ID": "1993-036VR", "EPOCH": "2025-12-12T22:22:29.955360", "MEAN_MOTION": 14.45309747, "ECCENTRICITY": 0.00275631, "INCLINATION": 74.0529, "RA_OF_ASC_NODE": 223.5345, "ARG_OF_PERICENTER": 292.1423, "MEAN_ANOMALY": 85.024, "EPHEMERIS_TYPE": 0, "CLASSIFICATION_TYPE": "U", "NORAD_CAT_ID": 34579, "ELEMENT_SET_NO": 999, "REV_AT_EPOCH": 88177, "BSTAR": 0.00063994635, "MEAN_MOTION_DOT": 2.231e-05, "MEAN_MOTION_DDOT": 0}, "tle": {"line1": "1 34579U 93036VR  25346.93229115  .00002231  00000+0  63995-3 0  9993", "line2": "2 34579  74.0529 223.5345 0027563 292.1423  85.0240 14.45309747881771"}}, "geometry": {"type": "Point", "coordinates": [-98.01730218886993, 65.8523214728706]}}, {"type": "Feature", "properties": {"norad_id": 34582, "name": "COSMOS 2251 DEB", "group": "cosmos-2251-debris", "lat": 3.340384155028354, "lon": -88.20025477836164, "alt_km": 717.0922930268353, "timestamp": "2025-12-13T13:34:35.435069+00:00", "meta": {"OBJECT_NAME": "COSMOS 2251 DEB", "OBJECT_ID": "1993-036VU", "EPOCH": "2025-12-12T19:15:43.944480", "MEAN_MOTION": 14.43324901, "ECCENTRICITY": 0.00478523, "INCLINATION": 74.0197, "RA_OF_ASC_NODE": 272.2599, "ARG_OF_PERICENTER": 22.3753, "MEAN_ANOMALY": 337.9476, "EPHEMERIS_TYPE": 0, "CLASSIFICATION_TYPE": "U", "NORAD_CAT_ID": 34582, "ELEMENT_SET_NO": 999, "REV_AT_EPOCH": 87948, "BSTAR": 0.0011992272, "MEAN_MOTION_DOT": 4.074e-05, "MEAN_MOTION_DDOT": 0}, "tle": {"line1": "1 34582U 93036VU  25346.80259195  .00004074  00000+0  11992-2 0  9990", "line2": "2 34582  74.0197 272.2599 0047852  22.3753 337.9476 14.43324901879482"}}, "geometry": {"type": "Point", "coordinates": [-88.20025477836164, 3.340384155028354]}}, {"type": "Feature", "properties": {"norad_id": 34588, "name": "COSMOS 2251 DEB", "group": "cosmos-2251-debris", "lat": 51.87351627402057, "lon": -71.89551506843817, "alt_km": 747.9826411519625, "timestamp": "2025-12-13T13:34:35.435079+00:00", "meta": {"OBJECT_NAME": "COSMOS 2251 DEB", "OBJECT_ID": "1993-036WA", "EPOCH": "2025-12-12T22:42:14.583168", "MEAN_MOTION": 14.42023829, "ECCENTRICITY": 0.00191871, "INCLINATION": 74.0436, "RA_OF_ASC_NODE": 267.873, "ARG_OF_PERICENTER": 320.5073, "MEAN_ANOMALY": 118.5734, "EPHEMERIS_TYPE": 0, "CLASSIFICATION_TYPE": "U", "NORAD_CAT_ID": 34588, "ELEMENT_SET_NO": 999, "REV_AT_EPOCH": 87953, "BSTAR": 0.00077727384, "MEAN_MOTION_DOT": 2.531e-05, "MEAN_MOTION_DDOT": 0}, "tle": {"line1": "1 34588U 93036WA  25346.94600212  .00002531  00000+0  77727-3 0  9996", "line2": "2 34588  74.0436 267.8730 0019187 320.5073 118.5734 14.42023829879539"}}, "geometry": {"type": "Point", "coordinates": [-71.89551506843817, 51.87351627402057]}}, {"type": "Feature", "properties": {"norad_id": 34589, "name": "COSMOS 2251 DEB", "group": "cosmos-2251-debris", "lat": 73.2391251431537, "lon": 161.4199245718587, "alt_km": 952.8981122361138, "timestamp": "2025-12-13T13:34:35.435089+00:00", "meta": {"OBJECT_NAME": "COSMOS 2251 DEB", "OBJECT_ID": "1993-036WB", "EPOCH": "2025-12-12T15:20:35.958048", "MEAN_MOTION": 13.86051992, "ECCENTRICITY": 0.02519051, "INCLINATION": 73.9257, "RA_OF_ASC_NODE": 56.2034, "ARG_OF_PERICENTER": 359.5658, "MEAN_ANOMALY": 151.6395, "EPHEMERIS_TYPE": 0, "CLASSIFICATION_TYPE": "U", "NORAD_CAT_ID": 34589, "ELEMENT_SET_NO": 999, "REV_AT_EPOCH": 84710, "BSTAR": 0.00036082774, "MEAN_MOTION_DOT": 5.09e-06, "MEAN_MOTION_DDOT": 0}, "tle": {"line1": "1 34589U 93036WB  25346.63930507  .00000509  00000+0  36083-3 0  9999", "line2": "2 34589  73.9257  56.2034 0251905 359.5658 151.6395 13.86051992847101"}}, "geometry": {"type": "Point", "coordinates": [161.4199245718587, 73.2391251431537]}}, {"type": "Feature", "properties": {"norad_id": 34590, "name": "COSMOS 2251 DEB", "group": "cosmos-2251-debris", "lat": -70.92140010537811, "lon": -94.8268909051571, "alt_km": 764.2569963538663, "timestamp": "2025-12-13T13:34:35.435098+00:00", "meta": {"OBJECT_NAME": "COSMOS 2251 DEB", "OBJECT_ID": "1993-036WC", "EPOCH": "2025-12-12T23:22:16.611168", "MEAN_MOTION": 14.54826277, "ECCENTRICITY": 0.00679462, "INCLINATION": 74.0437, "RA_OF_ASC_NODE": 322.1076, "ARG_OF_PERICENTER": 91.6575, "MEAN_ANOMALY": 330.4345, "EPHEMERIS_TYPE": 0, "CLASSIFICATION_TYPE": "U", "NORAD_CAT_ID": 34590, "ELEMENT_SET_NO": 999, "REV_AT_EPOCH": 89124, "BSTAR": 0.0002044089, "MEAN_MOTION_DOT": 8.75e-06, "MEAN_MOTION_DDOT": 0}, "tle": {"line1": "1 34590U 93036WC  25346.97380337  .00000875  00000+0  20441-3 0  9995", "line2": "2 34590  74.0437 322.1076 0067946  91.6575 330.4345 14.54826277891246"}}, "geometry": {"type": "Point", "coordinates": [-94.8268909051571, -70.92140010537811]}}]}